STARLINK-11156 [DTC]    
1 61056U 24164G   25222.43718699 -.00000631  00000+0 -35315-6 0  9999
2 61056  53.1578 272.3465 0001134  73.1612 286.9531 15.69707023 52244
STARLINK-11231 [DTC]    
1 61057U 24164H   25222.55978739 -.00010183  00000+0 -79547-4 0  9992
2 61057  53.1601 272.4206 0000233  62.9706 297.1335 15.69639048 53186
STARLINK-11299 [DTC]    
1 61058U 24164J   25221.85443343  .00001419  00000+0  16555-4 0  9993
2 61058  53.1593 275.8394 0000822 111.5798 248.5307 15.69729153 52149
STARLINK-11154 [DTC]    
1 61059U 24164K   25222.16788624 -.00000357  00000+0  19151-5 0  9990
2 61059  53.1578 274.2385 0001171  85.2900 274.8252 15.69711460 52194
STARLINK-11297 [DTC]    
1 61060U 24164L   25221.14427018 -.00001714  00000+0 -92756-5 0  9997
2 61060  53.1578 279.2291 0001403  80.1666 279.9510 15.69733342 52037
STARLINK-11233 [DTC]    
1 61061U 24164M   25222.41277898 -.00004816  00000+0 -34947-4 0  9991
2 61061  53.1566 272.9172 0001544  93.5378 266.5817 15.69684678 52238
STARLINK-11236 [DTC]    
1 61062U 24164N   25222.40785378 -.00011924  00000+0 -93759-4 0  9992
2 61062  53.1578 272.8860 0001584  84.7115 275.4084 15.69692639 52231
STARLINK-32350          
1 61063U 24164P   25222.56504376 -.00000066  00000+0  99211-5 0  9991
2 61063  53.1624 351.7602 0001482 112.9980 247.1178 15.30179531 52145
STARLINK-32378          
1 61064U 24164Q   25222.63353176 -.00003140  00000+0 -94000-4 0  9997
2 61064  53.1626 351.4746 0001186  74.8314 285.2818 15.30173922 51165
STARLINK-32321          
1 61065U 24164R   25222.64303144 -.00003468  00000+0 -10512-3 0  9997
2 61065  53.1617 351.5335 0001194  86.0991 274.0146 15.30174231 51160
STARLINK-32381          
1 61066U 24164S   25222.58826689 -.00002899  00000+0 -85887-4 0  9990
2 61066  53.1616 351.9006 0000733  92.0656 268.0428 15.30175656 51159
STARLINK-32385          
1 61068U 24164U   25222.63986187 -.00003538  00000+0 -10746-3 0  9990
2 61068  53.1619 351.5135 0001193  84.8347 275.2790 15.30179781 51166
STARLINK-32380          
1 61069U 24164V   25222.63668506 -.00001319  00000+0 -32426-4 0  9998
2 61069  53.1620 351.4943 0001332  87.7587 272.3566 15.30188559 51160
STARLINK-32375          
1 61070U 24164W   25222.58088678 -.00004453  00000+0 -13846-3 0  9996
2 61070  53.1609 351.8516 0001262  74.6369 285.4772 15.30165614 51154
STARLINK-11209 [DTC]    
1 61200U 24171A   25222.03686460  .00001636  00000+0  18357-4 0  9993
2 61200  53.1595 139.8337 0001329  85.3269 274.7900 15.69714448 52062
STARLINK-11257 [DTC]    
1 61201U 24171B   25221.96828669  .00000965  00000+0  12810-4 0  9996
2 61201  53.1577 140.1138 0000680  88.6515 271.4581 15.69718112 51145
STARLINK-11309 [DTC]    
1 61202U 24171C   25222.47277208 -.00007254  00000+0 -55101-4 0  9991
2 61202  53.1586 137.5651 0001068  94.1965 265.9175 15.69697784 51225
STARLINK-11292 [DTC]    
1 61203U 24171D   25222.46786758 -.00004257  00000+0 -30313-4 0  9994
2 61203  53.1583 137.5328 0001966  84.8942 275.2300 15.69684066 51225
STARLINK-11302 [DTC]    
1 61204U 24171E   25222.46296126 -.00003455  00000+0 -23697-4 0  9996
2 61204  53.1594 137.4988 0001168  85.1373 274.9778 15.69681573 51220
STARLINK-11277 [DTC]    
1 61205U 24171F   25222.19845599 -.00002031  00000+0 -11911-4 0  9996
2 61205  53.1602 138.6914 0001101  48.3047 311.8065 15.69700601 52088
STARLINK-11279 [DTC]    
1 61206U 24171G   25222.19354182 -.00001131  00000+0 -44828-5 0  9994
2 61206  53.1581 138.6580 0000729  67.8426 292.2669 15.69708791 52086
STARLINK-11091 [DTC]    
1 61207U 24171H   25221.94868685 -.00001441  00000+0 -70426-5 0  9992
2 61207  53.1596 139.9784 0001085  85.9121 274.2021 15.69700534 51147
STARLINK-11291 [DTC]    
1 61208U 24171J   25222.18863631  .00000709  00000+0  10704-4 0  9992
2 61208  53.1598 138.6256 0000669  86.5196 273.5898 15.69707138 51181
STARLINK-11304 [DTC]    
1 61209U 24171K   25222.18372803  .00000330  00000+0  75837-5 0  9998
2 61209  53.1584 138.5919 0001032  35.4829 324.6258 15.69709739 52091
STARLINK-11307 [DTC]    
1 61210U 24171L   25222.49730384 -.00004756  00000+0 -34483-4 0  9995
2 61210  53.1600 137.7240 0000382   6.6478 353.4545 15.69672505 51220
STARLINK-11298 [DTC]    
1 61211U 24171M   25222.49239611 -.00003953  00000+0 -27828-4 0  9996
2 61211  53.1588 137.6906 0000916  97.3907 262.7215 15.69674451 51229
STARLINK-11310 [DTC]    
1 61212U 24171N   25222.48745598  .00000308  00000+0  74011-5 0  9998
2 61212  53.1590 137.6579 0001326  84.8766 275.2404 15.69712356 51225
STARLINK-32386          
1 61213U 24171P   25222.26751440 -.00000588  00000+0 -77419-5 0  9995
2 61213  53.1600 224.1339 0001318  89.9595 270.1557 15.30186159 50003
STARLINK-32392          
1 61214U 24171Q   25222.28544951 -.00000049  00000+0  10465-4 0  9993
2 61214  53.1582 224.2460 0000771  83.0715 277.0374 15.30197648 50008
STARLINK-32436          
1 61215U 24171R   25222.26857466  .00000862  00000+0  41246-4 0  9993
2 61215  53.1574 224.1414 0001669  81.0584 279.0606 15.30193468 50003
STARLINK-32425          
1 61216U 24171S   25222.30867209 -.00001119  00000+0 -25661-4 0  9996
2 61216  53.1587 224.3929 0001039  90.9375 269.1745 15.30189689 50003
STARLINK-32342          
1 61217U 24171T   25222.29812095 -.00000463  00000+0 -35201-5 0  9991
2 61217  53.1570 224.3262 0001373  92.0888 268.0270 15.30199495 50916
STARLINK-32423          
1 61218U 24171U   25222.30023021 -.00000393  00000+0 -11322-5 0  9997
2 61218  53.1556 224.3392 0001197  80.8097 279.3039 15.30189190 50915
STARLINK-32248          
1 61219U 24171V   25222.38348360 -.00000533  00000+0 -58835-5 0  9998
2 61219  53.1592 224.1425 0001293  88.7292 271.3857 15.30189055 50923
STARLINK-11300 [DTC]    
1 61243U 24175A   25222.60990313 -.00003435  00000+0 -23536-4 0  9998
2 61243  53.1600  16.8421 0001087  86.4215 273.6927 15.69683259 50215
STARLINK-11276 [DTC]    
1 61244U 24175B   25222.60499619 -.00004253  00000+0 -30295-4 0  9991
2 61244  53.1589  16.8099 0000856  79.8822 280.2293 15.69686036 50212
STARLINK-11280 [DTC]    
1 61245U 24175C   25222.59517861 -.00002440  00000+0 -15308-4 0  9994
2 61245  53.1589  16.7477 0000902 158.9486 201.1569 15.69687185 50213
STARLINK-11308 [DTC]    
1 61246U 24175D   25222.60009195 -.00005656  00000+0 -41906-4 0  9998
2 61246  53.1597  16.7769 0000855  93.2077 266.9039 15.69686549 50215
STARLINK-11305 [DTC]    
1 61247U 24175E   25222.59028216 -.00004575  00000+0 -32979-4 0  9991
2 61247  53.1598  16.7123 0000695 144.8821 215.2243 15.69678595 50219
STARLINK-11317 [DTC]    
1 61248U 24175F   25222.58537878 -.00006334  00000+0 -47529-4 0  9992
2 61248  53.1596  16.6782 0000612 110.8869 249.2214 15.69681832 50215
STARLINK-11293 [DTC]    
1 61249U 24175G   25222.58046893 -.00004902  00000+0 -35671-4 0  9999
2 61249  53.1585  16.6466 0000555  94.9440 265.1641 15.69685841 50211
STARLINK-11334 [DTC]    
1 61250U 24175H   25222.60070868  .00023323  00000+0  16381-3 0  9995
2 61250  53.1575  16.0638 0003200 306.3232  53.7492 15.74084360 50227
STARLINK-11319 [DTC]    
1 61251U 24175J   25222.44341221 -.00002617  00000+0 -16778-4 0  9998
2 61251  53.1589  17.9400 0000223  68.7225 291.3816 15.69687180 50181
STARLINK-11318 [DTC]    
1 61252U 24175K   25222.62952209 -.00003822  00000+0 -26736-4 0  9997
2 61252  53.1592  16.9662 0000854  44.1205 315.9881 15.69685446 51382
STARLINK-11311 [DTC]    
1 61253U 24175L   25222.62461246 -.00003992  00000+0 -28130-4 0  9992
2 61253  53.1593  16.9320 0000767  80.4323 279.6782 15.69693368 51425
STARLINK-11306 [DTC]    
1 61254U 24175M   25222.61970965 -.00002679  00000+0 -17276-4 0  9995
2 61254  53.1587  16.9013 0001287  74.5242 285.5918 15.69686907 51417
STARLINK-11313 [DTC]    
1 61255U 24175N   25222.61480810 -.00003964  00000+0 -27915-4 0  9990
2 61255  53.1590  16.8668 0000847 102.3235 257.7878 15.69681892 50211
STARLINK-32431          
1 61256U 24175P   25221.93959060  .00000490  00000+0  28658-4 0  9997
2 61256  53.1592  97.5993 0001204  78.1805 281.9331 15.30191715 49031
STARLINK-32432          
1 61257U 24175Q   25222.07338883 -.00000215  00000+0  48668-5 0  9998
2 61257  53.1588  97.0162 0001257  81.7818 278.3325 15.30187447 49054
STARLINK-32382          
1 61258U 24175R   25222.07655694  .00002075  00000+0  82188-4 0  9990
2 61258  53.1597  97.0342 0001090  75.2876 284.8245 15.30188226 49051
STARLINK-32435          
1 61259U 24175S   25222.34520394 -.00002946  00000+0 -87387-4 0  9994
2 61259  53.1592  95.8696 0001158  92.2214 267.8919 15.30201382 49097
STARLINK-32474          
1 61260U 24175T   25221.93325881  .00000323  00000+0  23031-4 0  9995
2 61260  53.1601  97.5622 0001151  80.0173 280.0958 15.30190615 49030
STARLINK-32447          
1 61261U 24175U   25221.93642996 -.00001599  00000+0 -41900-4 0  9998
2 61261  53.1595  97.5801 0001282  72.1244 287.9896 15.30183667 49034
STARLINK-32446          
1 61262U 24175V   25222.34203836 -.00003565  00000+0 -10830-3 0  9993
2 61262  53.1595  95.8495 0001119 115.3437 244.7680 15.30200083 49098
STARLINK-32174          
1 61509U 24183A   25222.47357447  .00000078  00000+0  11944-4 0  9990
2 61509  53.1617  35.7616 0001167  84.1832 275.9306 15.39607355 47428
STARLINK-32139          
1 61510U 24183B   25222.21332416 -.00000117  00000+0  81838-5 0  9998
2 61510  53.1603  44.7978 0000891  92.6799 267.4304 15.30191209 47279
STARLINK-32140          
1 61511U 24183C   25221.80454599  .00000221  00000+0  19598-4 0  9998
2 61511  53.1602  46.5116 0000977 102.6102 257.5008 15.30196410 47212
STARLINK-32201          
1 61512U 24183D   25222.62163588 -.00000458  00000+0 -14748-5 0  9992
2 61512  53.1603  35.2644 0001114  81.5725 278.5406 15.39618045 47447
STARLINK-32030          
1 61513U 24183E   25222.21966087 -.00000794  00000+0 -14710-4 0  9994
2 61513  53.1608  44.8368 0001137 100.0997 260.0132 15.30184436 47271
